      2.10          N: GNSS NAV DATA                        RINEX VERSION / TYPE
fic2rin                                 05/23/2018 00:13:33 PGM / RUN BY / DATE
                                                            END OF HEADER
 8 18  5 22  8  0  0.0-1.021032221615e-04-1.250555214938e-12 0.000000000000e+00
    8.900000000000e+01 5.468750000000e+01 4.277678182466e-09 3.027202722161e+00
    2.827495336533e-06 3.481306601316e-03 6.237998604774e-06 5.153571586609e+03
    2.016000000000e+05 3.911554813385e-08 2.595881429910e+00 1.862645149231e-09
    9.693612865885e-01 2.631250000000e+02-4.382282302848e-01-8.127838557100e-09
    2.903692379014e-10 1.000000000000e+00 2.002000000000e+03 0.000000000000e+00
    2.400000000000e+00 0.000000000000e+00 5.122274160385e-09 8.900000000000e+01
    1.944060000000e+05 4.000000000000e+00
11 18  5 22  8  0  0.0-7.357872091234e-04 7.958078640513e-13 0.000000000000e+00
    7.100000000000e+01-8.593750000000e+00 6.074181585473e-09-1.367609302874e-01
   -5.457550287247e-07 1.681697217282e-02 3.516674041748e-06 5.153629999161e+03
    2.016000000000e+05-3.334134817123e-07-3.049373181284e+00-8.381903171539e-08
    9.055512532845e-01 2.844375000000e+02 1.761074563047e+00-9.337531802822e-09
    2.464388365953e-10 1.000000000000e+00 2.002000000000e+03 0.000000000000e+00
    2.400000000000e+00 0.000000000000e+00-1.210719347000e-08 7.100000000000e+01
    1.944060000000e+05 4.000000000000e+00
 7 18  5 22  8  0  0.0 1.878635957837e-04-6.139089236967e-12 0.000000000000e+00
    5.200000000000e+01 1.321875000000e+01 4.966992609465e-09-1.305391982130e-01
    6.202608346939e-07 1.160803402308e-02 5.766749382019e-06 5.153658246994e+03
    2.016000000000e+05 4.470348358154e-08 5.313368554213e-01 1.247972249985e-07
    9.588883467600e-01 2.640312500000e+02-2.531988136086e+00-8.491067972778e-09
   -4.093027633887e-10 1.000000000000e+00 2.002000000000e+03 0.000000000000e+00
    2.400000000000e+00 0.000000000000e+00-1.117587089539e-08 5.200000000000e+01
    1.944060000000e+05 4.000000000000e+00
 6 18  5 22  8  0  0.0 4.017753526568e-04-2.614797267597e-12 0.000000000000e+00
    4.000000000000e+01-5.462500000000e+01 4.440899266994e-09 7.037401491677e-01
   -2.732500433922e-06 1.183767919429e-03 4.366040229797e-06 5.153627017975e+03
    2.016000000000e+05 3.352761268616e-08-2.631248410744e+00-7.450580596924e-09
    9.710657763302e-01 2.963125000000e+02-1.067943166634e+00-8.231771457751e-09
    8.643217167545e-11 1.000000000000e+00 2.002000000000e+03 0.000000000000e+00
    2.400000000000e+00 0.000000000000e+00 4.656612873077e-09 4.000000000000e+01
    1.944060000000e+05 4.000000000000e+00
15 18  5 22  8  0  0.0-3.538629971445e-04 5.684341886081e-13 0.000000000000e+00
    5.000000000000e+01 3.053125000000e+01 5.533801933634e-09 1.858889331276e+00
    1.633539795876e-06 1.025870058220e-02 8.998438715935e-06 5.153743473053e+03
    2.016000000000e+05-3.445893526077e-07-6.165969791906e-01 2.421438694000e-08
    9.283398596643e-01 1.921250000000e+02 6.772177969538e-01-8.481067556220e-09
    2.303667385565e-10 1.000000000000e+00 2.002000000000e+03 0.000000000000e+00
    2.400000000000e+00 0.000000000000e+00-1.117587089539e-08 5.000000000000e+01
    1.944060000000e+05 4.000000000000e+00
19 18  5 22  8  0  0.0-4.344643093646e-04 2.955857780762e-12 0.000000000000e+00
    4.300000000000e+01 3.900000000000e+01 4.065883646088e-09-6.990216429544e-01
    2.332031726837e-06 9.876772761345e-03 6.467103958130e-06 5.153712724686e+03
    2.016000000000e+05-7.078051567078e-08 2.705302612747e+00 1.415610313416e-07
    9.803912280870e-01 2.673750000000e+02 1.183392613555e+00-8.136410342721e-09
    3.607293115380e-10 1.000000000000e+00 2.002000000000e+03 0.000000000000e+00
    2.400000000000e+00 0.000000000000e+00-1.536682248116e-08 4.300000000000e+01
    1.944060000000e+05 4.000000000000e+00
17 18  5 22  8  0  0.0-9.570829570293e-05 3.524291969370e-12 0.000000000000e+00
    8.600000000000e+01 4.234375000000e+01 3.828373752848e-09 2.613840373172e+00
    2.196058630943e-06 1.235423528124e-02 6.280839443207e-06 5.153562240601e+03
    2.016000000000e+05 8.568167686462e-08 2.658311374093e+00-1.080334186554e-07
    9.828567687752e-01 2.662500000000e+02-1.777960795295e+00-7.702820853407e-09
    2.975123925853e-10 1.000000000000e+00 2.002000000000e+03 0.000000000000e+00
    2.400000000000e+00 0.000000000000e+00-1.117587089539e-08 8.600000000000e+01
    1.944060000000e+05 4.000000000000e+00
32 18  5 22  8  0  0.0-5.060662515461e-04 5.343281372916e-12 0.000000000000e+00
    4.600000000000e+01 4.000000000000e+01 4.843773191167e-09-2.839053846560e+00
    2.089887857437e-06 2.116438117810e-03 8.547678589821e-06 5.153664690018e+03
    2.016000000000e+05-1.490116119385e-08-5.410736797420e-01-4.842877388000e-08
    9.572319840972e-01 2.121562500000e+02-2.563075200861e+00-8.117838140543e-09
    2.025084352892e-10 1.000000000000e+00 2.002000000000e+03 0.000000000000e+00
    2.400000000000e+00 0.000000000000e+00 4.656612873077e-10 4.600000000000e+01
    1.944060000000e+05 4.000000000000e+00
16 18  5 22  8  0  0.0 2.402113750577e-05-1.250555214938e-12 0.000000000000e+00
    4.400000000000e+01 3.925000000000e+01 3.614079112330e-09-2.620738450310e+00
    1.942738890648e-06 1.003409596160e-02 9.844079613686e-06 5.153642164230e+03
    2.016000000000e+05 5.587935447693e-09 1.642906528646e+00-1.247972249985e-07
    9.868688303851e-01 2.034062500000e+02 5.159888274058e-01-7.591744798072e-09
   -1.857220217820e-10 1.000000000000e+00 2.002000000000e+03 0.000000000000e+00
    2.400000000000e+00 0.000000000000e+00-1.071020960808e-08 4.400000000000e+01
    1.944060000000e+05 4.000000000000e+00
18 18  5 22  8  0  0.0 1.211697235703e-05 4.774847184308e-12 0.000000000000e+00
    5.300000000000e+01-5.143750000000e+01 5.056282043014e-09 2.808087667094e-01
   -2.838671207428e-06 1.453048631083e-02 4.671514034271e-06 5.153654380798e+03
    2.016000000000e+05-2.402812242508e-07-2.669933371705e+00 6.891787052155e-08
    9.497329197311e-01 2.859375000000e+02 1.304372486224e+00-8.765365112640e-09
   -3.571577341961e-12 1.000000000000e+00 2.002000000000e+03 0.000000000000e+00
    3.400000000000e+00 0.000000000000e+00-6.984919309616e-09 5.300000000000e+01
    1.944060000000e+05 4.000000000000e+00
31 18  5 22  8  0  0.0 1.199473626912e-04-2.614797267597e-12 0.000000000000e+00
    4.600000000000e+01 1.190625000000e+01 4.722339561541e-09-3.182171663366e-01
    5.438923835754e-07 8.743943530135e-03 6.522983312607e-06 5.153658229828e+03
    2.016000000000e+05 1.210719347000e-07 5.438099275691e-01-3.352761268616e-08
    9.635356527503e-01 2.565000000000e+02-1.296193870077e-01-8.261058391955e-09
   -3.778728827795e-10 1.000000000000e+00 2.002000000000e+03 0.000000000000e+00
    2.400000000000e+00 0.000000000000e+00-1.350417733192e-08 4.600000000000e+01
    1.944060000000e+05 4.000000000000e+00
20 18  5 22  8  0  0.0 5.087465979159e-04 9.094947017729e-13 0.000000000000e+00
    4.200000000000e+01-5.978125000000e+01 5.326650447800e-09 7.799788857771e-01
   -3.151595592499e-06 4.250524681993e-03 9.579584002495e-06 5.154844099045e+03
    2.016000000000e+05-5.587935447693e-08-1.689384770205e+00-5.960464477539e-08
    9.280038961386e-01 1.780937500000e+02 1.946572053237e+00-8.420350741407e-09
    7.964617472573e-11 1.000000000000e+00 2.002000000000e+03 0.000000000000e+00
    2.400000000000e+00 0.000000000000e+00-8.381903171539e-09 4.200000000000e+01
    1.944060000000e+05 4.000000000000e+00
22 18  5 22  8  0  0.0-4.000640474260e-04-1.296029950026e-11 0.000000000000e+00
    1.010000000000e+02-7.793750000000e+01 5.385938631677e-09 2.057654983738e+00
   -4.034489393234e-06 7.385140168481e-03 1.038983464241e-05 5.153811244965e+03
    2.016000000000e+05 1.322478055954e-07-1.639430194951e+00-8.195638656616e-08
    9.247341045330e-01 1.612187500000e+02-1.539042844318e+00-8.287845222020e-09
    3.964450849577e-11 1.000000000000e+00 2.002000000000e+03 0.000000000000e+00
    2.400000000000e+00 0.000000000000e+00-1.769512891769e-08 1.010000000000e+02
    1.944060000000e+05 4.000000000000e+00
24 18  5 22  8  0  0.0-5.005905404687e-05-4.547473508865e-13 0.000000000000e+00
    7.600000000000e+01 1.290625000000e+01 5.322007397256e-09 8.149886015351e-01
    8.512288331985e-07 6.924155168235e-03 5.850568413734e-06 5.153644811630e+03
    2.016000000000e+05 3.166496753693e-08 4.717009750504e-01 5.401670932770e-08
    9.419776706138e-01 2.540000000000e+02 5.444626713757e-01-8.603929816784e-09
   -3.764442518427e-10 1.000000000000e+00 2.002000000000e+03 0.000000000000e+00
    2.400000000000e+00 0.000000000000e+00 2.793967723846e-09 7.600000000000e+01
    1.944060000000e+05 4.000000000000e+00
23 18  5 22  8  0  0.0-2.168049104512e-04 4.547473508865e-13 0.000000000000e+00
    5.900000000000e+01 3.471875000000e+01 5.266647948455e-09 1.414181633473e+00
    1.959502696991e-06 1.250658556819e-02 9.229406714439e-06 5.153795034409e+03
    2.016000000000e+05-1.806765794754e-07-5.475910880411e-01 1.620501279831e-07
    9.436692896023e-01 1.980312500000e+02-2.363347433993e+00-8.457495145763e-09
    2.003654888840e-10 1.000000000000e+00 2.002000000000e+03 0.000000000000e+00
    2.400000000000e+00 0.000000000000e+00-2.002343535423e-08 5.900000000000e+01
    1.944060000000e+05 4.000000000000e+00
21 18  5 22  8  0  0.0-3.918427973986e-04 5.002220859751e-12 0.000000000000e+00
    6.400000000000e+01-5.000000000000e+01 5.124499170245e-09-1.249194917457e+00
   -2.020969986916e-06 2.440813241992e-02 5.252659320831e-06 5.153702182770e+03
    2.016000000000e+05-2.868473529816e-07-2.677007689510e+00 5.029141902924e-07
    9.439771504716e-01 2.727500000000e+02-1.556741410105e+00-8.698576616346e-09
    1.389343586023e-10 1.000000000000e+00 2.002000000000e+03 0.000000000000e+00
    2.400000000000e+00 0.000000000000e+00-1.024454832077e-08 6.400000000000e+01
    1.944060000000e+05 4.000000000000e+00
